{
  "type": "FeatureCollection",
  "features": [
    {
      "type": "Feature",
      "properties": {
        "norad_id": 35462,
        "name": "COSMOS 2251 DEB",
        "group": "cosmos-2251-debris",
        "lat": -30.951886915056058,
        "lon": 78.21830322717247,
        "alt_km": 776.4798063640856,
        "timestamp": "2025-12-23T22:42:33.381966+00:00",
        "meta_object_name": "COSMOS 2251 DEB",
        "meta_object_id": "1993-036ALG",
        "meta_epoch": "2025-12-19T10:12:24.458112",
        "meta_mean_motion": 14.29342636,
        "meta_eccentricity": 0.0086733,
        "meta_inclination": 74.0371,
        "meta_ra_of_asc_node": 256.5417,
        "meta_arg_of_pericenter": 290.2864,
        "meta_mean_anomaly": 68.8979,
        "meta_ephemeris_type": 0,
        "meta_classification_type": "U",
        "meta_norad_cat_id": 35462,
        "meta_element_set_no": 999,
        "meta_rev_at_epoch": 66476,
        "meta_bstar": 0.0010032,
        "meta_mean_motion_dot": 2.635e-05,
        "meta_mean_motion_ddot": 0,
        "tle_line1": "1 35462U 93036ALG 25353.42528308  .00002635  00000+0  10032-2 0  9994",
        "tle_line2": "2 35462  74.0371 256.5417 0086733 290.2864  68.8979 14.29342636664768"
      },
      "geometry": {
        "type": "Point",
        "coordinates": [
          78.21830322717247,
          -30.951886915056058
        ]
      }
    },
    {
      "type": "Feature",
      "properties": {
        "norad_id": 35465,
        "name": "COSMOS 2251 DEB",
        "group": "cosmos-2251-debris",
        "lat": 22.25238475768612,
        "lon": -10.615466987900948,
        "alt_km": 789.2445426773311,
        "timestamp": "2025-12-23T22:42:33.381976+00:00",
        "meta_object_name": "COSMOS 2251 DEB",
        "meta_object_id": "1993-036ALK",
        "meta_epoch": "2025-12-17T13:03:02.562624",
        "meta_mean_motion": 14.44331537,
        "meta_eccentricity": 0.00642719,
        "meta_inclination": 73.9967,
        "meta_ra_of_asc_node": 188.0661,
        "meta_arg_of_pericenter": 347.2721,
        "meta_mean_anomaly": 12.6809,
        "meta_ephemeris_type": 0,
        "meta_classification_type": "U",
        "meta_norad_cat_id": 35465,
        "meta_element_set_no": 999,
        "meta_rev_at_epoch": 87311,
        "meta_bstar": 0.00028334394,
        "meta_mean_motion_dot": 9.72e-06,
        "meta_mean_motion_ddot": 0,
        "tle_line1": "1 35465U 93036ALK 25351.54377966  .00000972  00000+0  28334-3 0  9997",
        "tle_line2": "2 35465  73.9967 188.0661 0064271 347.2721  12.6809 14.44331537873113"
      },
      "geometry": {
        "type": "Point",
        "coordinates": [
          -10.615466987900948,
          22.25238475768612
        ]
      }
    },
    {
      "type": "Feature",
      "properties": {
        "norad_id": 35469,
        "name": "COSMOS 2251 DEB",
        "group": "cosmos-2251-debris",
        "lat": -33.54784010549675,
        "lon": -166.23670099204213,
        "alt_km": 704.1490266248829,
        "timestamp": "2025-12-23T22:42:33.381986+00:00",
        "meta_object_name": "COSMOS 2251 DEB",
        "meta_object_id": "1993-036ALP",
        "meta_epoch": "2025-12-20T07:36:40.266144",
        "meta_mean_motion": 14.4982565,
        "meta_eccentricity": 0.00765645,
        "meta_inclination": 74.0168,
        "meta_ra_of_asc_node": 9.6263,
        "meta_arg_of_pericenter": 163.1432,
        "meta_mean_anomaly": 197.23,
        "meta_ephemeris_type": 0,
        "meta_classification_type": "U",
        "meta_norad_cat_id": 35469,
        "meta_element_set_no": 999,
        "meta_rev_at_epoch": 88221,
        "meta_bstar": 6.7527967e-05,
        "meta_mean_motion_dot": 2.41e-06,
        "meta_mean_motion_ddot": 0,
        "tle_line1": "1 35469U 93036ALP 25354.31713271  .00000241  00000+0  67528-4 0  9990",
        "tle_line2": "2 35469  74.0168   9.6263 0076564 163.1432 197.2300 14.49825650882216"
      },
      "geometry": {
        "type": "Point",
        "coordinates": [
          -166.23670099204213,
          -33.54784010549675
        ]
      }
    },
    {
      "type": "Feature",
      "properties": {
        "norad_id": 35475,
        "name": "COSMOS 2251 DEB",
        "group": "cosmos-2251-debris",
        "lat": 24.624328161228952,
        "lon": -43.660795532888876,
        "alt_km": 653.5354998376151,
        "timestamp": "2025-12-23T22:42:33.381996+00:00",
        "meta_object_name": "COSMOS 2251 DEB",
        "meta_object_id": "1993-036ALV",
        "meta_epoch": "2025-12-22T16:36:26.868096",
        "meta_mean_motion": 14.69928525,
        "meta_eccentricity": 0.00201226,
        "meta_inclination": 74.022,
        "meta_ra_of_asc_node": 146.318,
        "meta_arg_of_pericenter": 219.0346,
        "meta_mean_anomaly": 140.9374,
        "meta_ephemeris_type": 0,
        "meta_classification_type": "U",
        "meta_norad_cat_id": 35475,
        "meta_element_set_no": 999,
        "meta_rev_at_epoch": 65763,
        "meta_bstar": 0.0020453199,
        "meta_mean_motion_dot": 0.00012275,
        "meta_mean_motion_ddot": 0,
        "tle_line1": "1 35475U 93036ALV 25356.69197764  .00012275  00000+0  20453-2 0  9997",
        "tle_line2": "2 35475  74.0220 146.3180 0020122 219.0346 140.9374 14.69928525657632"
      },
      "geometry": {
        "type": "Point",
        "coordinates": [
          -43.660795532888876,
          24.624328161228952
        ]
      }
    },
    {
      "type": "Feature",
      "properties": {
        "norad_id": 35476,
        "name": "COSMOS 2251 DEB",
        "group": "cosmos-2251-debris",
        "lat": -56.35438605593235,
        "lon": -115.50940140147965,
        "alt_km": 658.2205863223562,
        "timestamp": "2025-12-23T22:42:33.382006+00:00",
        "meta_object_name": "COSMOS 2251 DEB",
        "meta_object_id": "1993-036ALW",
        "meta_epoch": "2025-12-22T13:45:48.233952",
        "meta_mean_motion": 14.75861708,
        "meta_eccentricity": 0.00182953,
        "meta_inclination": 73.9776,
        "meta_ra_of_asc_node": 41.6056,
        "meta_arg_of_pericenter": 18.7037,
        "meta_mean_anomaly": 130.8164,
        "meta_ephemeris_type": 0,
        "meta_classification_type": "U",
        "meta_norad_cat_id": 35476,
        "meta_element_set_no": 999,
        "meta_rev_at_epoch": 88032,
        "meta_bstar": 0.0016082862,
        "meta_mean_motion_dot": 0.00011054,
        "meta_mean_motion_ddot": 0,
        "tle_line1": "1 35476U 93036ALW 25356.57347493  .00011054  00000+0  16083-2 0  9999",
        "tle_line2": "2 35476  73.9776  41.6056 0018295  18.7037 130.8164 14.75861708880320"
      },
      "geometry": {
        "type": "Point",
        "coordinates": [
          -115.50940140147965,
          -56.35438605593235
        ]
      }
    },
    {
      "type": "Feature",
      "properties": {
        "norad_id": 35580,
        "name": "COSMOS 2251 DEB",
        "group": "cosmos-2251-debris",
        "lat": -55.579537287451224,
        "lon": 4.591489385058959,
        "alt_km": 902.7249355342647,
        "timestamp": "2025-12-23T22:42:33.382016+00:00",
        "meta_object_name": "COSMOS 2251 DEB",
        "meta_object_id": "1993-036ALX",
        "meta_epoch": "2025-12-22T19:33:13.925664",
        "meta_mean_motion": 13.83921158,
        "meta_eccentricity": 0.0280776,
        "meta_inclination": 73.9007,
        "meta_ra_of_asc_node": 161.5885,
        "meta_arg_of_pericenter": 164.8747,
        "meta_mean_anomaly": 196.0996,
        "meta_ephemeris_type": 0,
        "meta_classification_type": "U",
        "meta_norad_cat_id": 35580,
        "meta_element_set_no": 999,
        "meta_rev_at_epoch": 62396,
        "meta_bstar": 0.0019852622,
        "meta_mean_motion_dot": 2.966e-05,
        "meta_mean_motion_ddot": 0,
        "tle_line1": "1 35580U 93036ALX 25356.81474451  .00002966  00000+0  19853-2 0  9997",
        "tle_line2": "2 35580  73.9007 161.5885 0280776 164.8747 196.0996 13.83921158623967"
      },
      "geometry": {
        "type": "Point",
        "coordinates": [
          4.591489385058959,
          -55.579537287451224
        ]
      }
    },
    {
      "type": "Feature",
      "properties": {
        "norad_id": 35583,
        "name": "COSMOS 2251 DEB",
        "group": "cosmos-2251-debris",
        "lat": -39.54568463202047,
        "lon": 27.635994323174167,
        "alt_km": 773.6738456263765,
        "timestamp": "2025-12-23T22:42:33.382026+00:00",
        "meta_object_name": "COSMOS 2251 DEB",
        "meta_object_id": "1993-036AMA",
        "meta_epoch": "2025-12-22T06:38:14.014176",
        "meta_mean_motion": 13.55351852,
        "meta_eccentricity": 0.03850357,
        "meta_inclination": 73.9158,
        "meta_ra_of_asc_node": 196.56,
        "meta_arg_of_pericenter": 219.1539,
        "meta_mean_anomaly": 138.1132,
        "meta_ephemeris_type": 0,
        "meta_classification_type": "U",
        "meta_norad_cat_id": 35583,
        "meta_element_set_no": 999,
        "meta_rev_at_epoch": 82541,
        "meta_bstar": 0.00079490953,
        "meta_mean_motion_dot": 8.63e-06,
        "meta_mean_motion_ddot": 0,
        "tle_line1": "1 35583U 93036AMA 25356.27655109  .00000863  00000+0  79491-3 0  9990",
        "tle_line2": "2 35583  73.9158 196.5600 0385035 219.1539 138.1132 13.55351852825417"
      },
      "geometry": {
        "type": "Point",
        "coordinates": [
          27.635994323174167,
          -39.54568463202047
        ]
      }
    }
  ]
}